{
  "type": "FeatureCollection",
  "features": [
    {
      "type": "Feature",
      "properties": {
        "norad_id": 41877,
        "name": "RESOURCESAT-2A",
        "group": "resource",
        "lat": 76.87851390431197,
        "lon": 6.801839697458108,
        "alt_km": 813.3679934486045,
        "timestamp": "2025-12-04T09:47:37.180190+00:00",
        "meta_object_name": "RESOURCESAT-2A",
        "meta_object_id": "2016-074A",
        "meta_epoch": "2025-12-04T04:21:00.527904",
        "meta_mean_motion": 14.21593978,
        "meta_eccentricity": 0.0001161,
        "meta_inclination": 98.7767,
        "meta_ra_of_asc_node": 48.0868,
        "meta_arg_of_pericenter": 297.5914,
        "meta_mean_anomaly": 62.5145,
        "meta_ephemeris_type": 0,
        "meta_classification_type": "U",
        "meta_norad_cat_id": 41877,
        "meta_element_set_no": 999,
        "meta_rev_at_epoch": 46659,
        "meta_bstar": 0.00018121,
        "meta_mean_motion_dot": 3.53e-06,
        "meta_mean_motion_ddot": 0,
        "tle_line1": "1 41877U 16074A   25338.18125611  .00000353  00000+0  18121-3 0  9997",
        "tle_line2": "2 41877  98.7767  48.0868 0001161 297.5914  62.5145 14.21593978466595"
      },
      "geometry": {
        "type": "Point",
        "coordinates": [
          6.801839697458108,
          76.87851390431197
        ]
      }
    },
    {
      "type": "Feature",
      "properties": {
        "norad_id": 41948,
        "name": "CARTOSAT-2D",
        "group": "resource",
        "lat": 43.691051355067565,
        "lon": 28.861039050907358,
        "alt_km": 507.0909804742587,
        "timestamp": "2025-12-04T09:47:37.180201+00:00",
        "meta_object_name": "CARTOSAT-2D",
        "meta_object_id": "2017-008A",
        "meta_epoch": "2025-12-04T00:06:57.621312",
        "meta_mean_motion": 15.19353382,
        "meta_eccentricity": 0.00048626,
        "meta_inclination": 97.4402,
        "meta_ra_of_asc_node": 35.6355,
        "meta_arg_of_pericenter": 195.6689,
        "meta_mean_anomaly": 164.4396,
        "meta_ephemeris_type": 0,
        "meta_classification_type": "U",
        "meta_norad_cat_id": 41948,
        "meta_element_set_no": 999,
        "meta_rev_at_epoch": 48794,
        "meta_bstar": 3.196892e-06,
        "meta_mean_motion_dot": 0,
        "meta_mean_motion_ddot": 0,
        "tle_line1": "1 41948U 17008A   25338.00483358  .00000000  00000+0  31969-5 0  9996",
        "tle_line2": "2 41948  97.4402  35.6355 0004862 195.6689 164.4396 15.19353382487940"
      },
      "geometry": {
        "type": "Point",
        "coordinates": [
          28.861039050907358,
          43.691051355067565
        ]
      }
    },
    {
      "type": "Feature",
      "properties": {
        "norad_id": 42063,
        "name": "SENTINEL-2B",
        "group": "resource",
        "lat": 46.37303682586605,
        "lon": -119.92383325270154,
        "alt_km": 784.285776100578,
        "timestamp": "2025-12-04T09:47:37.180211+00:00",
        "meta_object_name": "SENTINEL-2B",
        "meta_object_id": "2017-013A",
        "meta_epoch": "2025-12-03T23:06:17.614368",
        "meta_mean_motion": 14.30810479,
        "meta_eccentricity": 0.00011191,
        "meta_inclination": 98.5726,
        "meta_ra_of_asc_node": 50.5316,
        "meta_arg_of_pericenter": 98.0031,
        "meta_mean_anomaly": 262.1279,
        "meta_ephemeris_type": 0,
        "meta_classification_type": "U",
        "meta_norad_cat_id": 42063,
        "meta_element_set_no": 999,
        "meta_rev_at_epoch": 45672,
        "meta_bstar": 0.00013119099,
        "meta_mean_motion_dot": 3e-06,
        "meta_mean_motion_ddot": 0,
        "tle_line1": "1 42063U 17013A   25337.96270387  .00000300  00000+0  13119-3 0  9999",
        "tle_line2": "2 42063  98.5726  50.5316 0001119  98.0031 262.1279 14.30810479456727"
      },
      "geometry": {
        "type": "Point",
        "coordinates": [
          -119.92383325270154,
          46.37303682586605
        ]
      }
    },
    {
      "type": "Feature",
      "properties": {
        "norad_id": 42767,
        "name": "CARTOSAT-2E",
        "group": "resource",
        "lat": -45.788047755999,
        "lon": 43.84138458139522,
        "alt_km": 513.7621324783768,
        "timestamp": "2025-12-04T09:47:37.180221+00:00",
        "meta_object_name": "CARTOSAT-2E",
        "meta_object_id": "2017-036C",
        "meta_epoch": "2025-12-04T03:40:25.781952",
        "meta_mean_motion": 15.19184702,
        "meta_eccentricity": 0.0002295,
        "meta_inclination": 97.4574,
        "meta_ra_of_asc_node": 35.8518,
        "meta_arg_of_pericenter": 282.3699,
        "meta_mean_anomaly": 77.7278,
        "meta_ephemeris_type": 0,
        "meta_classification_type": "U",
        "meta_norad_cat_id": 42767,
        "meta_element_set_no": 999,
        "meta_rev_at_epoch": 46853,
        "meta_bstar": 0.0005057,
        "meta_mean_motion_dot": 0.00010578,
        "meta_mean_motion_ddot": 0,
        "tle_line1": "1 42767U 17036C   25338.15307618  .00010578  00000+0  50570-3 0  9995",
        "tle_line2": "2 42767  97.4574  35.8518 0002295 282.3699  77.7278 15.19184702468533"
      },
      "geometry": {
        "type": "Point",
        "coordinates": [
          43.84138458139522,
          -45.788047755999
        ]
      }
    },
    {
      "type": "Feature",
      "properties": {
        "norad_id": 42920,
        "name": "FORMOSAT-5",
        "group": "resource",
        "lat": -68.80455644006949,
        "lon": -149.06881418643994,
        "alt_km": 727.5297242493807,
        "timestamp": "2025-12-04T09:47:37.180232+00:00",
        "meta_object_name": "FORMOSAT-5",
        "meta_object_id": "2017-049A",
        "meta_epoch": "2025-12-03T21:03:26.443296",
        "meta_mean_motion": 14.50997002,
        "meta_eccentricity": 0.00102922,
        "meta_inclination": 98.2462,
        "meta_ra_of_asc_node": 52.3719,
        "meta_arg_of_pericenter": 325.1836,
        "meta_mean_anomaly": 34.8685,
        "meta_ephemeris_type": 0,
        "meta_classification_type": "U",
        "meta_norad_cat_id": 42920,
        "meta_element_set_no": 999,
        "meta_rev_at_epoch": 43835,
        "meta_bstar": 0.00013803205,
        "meta_mean_motion_dot": 5.02e-06,
        "meta_mean_motion_ddot": 0,
        "tle_line1": "1 42920U 17049A   25337.87738939  .00000502  00000+0  13803-3 0  9996",
        "tle_line2": "2 42920  98.2462  52.3719 0010292 325.1836  34.8685 14.50997002438353"
      },
      "geometry": {
        "type": "Point",
        "coordinates": [
          -149.06881418643994,
          -68.80455644006949
        ]
      }
    },
    {
      "type": "Feature",
      "properties": {
        "norad_id": 42969,
        "name": "SENTINEL-5P",
        "group": "resource",
        "lat": 30.76254359310105,
        "lon": 102.34285057893852,
        "alt_km": 824.9919766288731,
        "timestamp": "2025-12-04T09:47:37.180243+00:00",
        "meta_object_name": "SENTINEL-5P",
        "meta_object_id": "2017-064A",
        "meta_epoch": "2025-12-03T19:33:43.278336",
        "meta_mean_motion": 14.19513918,
        "meta_eccentricity": 9.43e-05,
        "meta_inclination": 98.777,
        "meta_ra_of_asc_node": 276.4789,
        "meta_arg_of_pericenter": 85.8301,
        "meta_mean_anomaly": 274.2983,
        "meta_ephemeris_type": 0,
        "meta_classification_type": "U",
        "meta_norad_cat_id": 42969,
        "meta_element_set_no": 999,
        "meta_rev_at_epoch": 42184,
        "meta_bstar": 9.9162e-05,
        "meta_mean_motion_dot": 1.65e-06,
        "meta_mean_motion_ddot": 0,
        "tle_line1": "1 42969U 17064A   25337.81508424  .00000165  00000+0  99162-4 0  9992",
        "tle_line2": "2 42969  98.7770 276.4789 0000943  85.8301 274.2983 14.19513918421840"
      },
      "geometry": {
        "type": "Point",
        "coordinates": [
          102.34285057893852,
          30.76254359310105
        ]
      }
    },
    {
      "type": "Feature",
      "properties": {
        "norad_id": 42987,
        "name": "SKYSAT-C11",
        "group": "resource",
        "lat": 38.9341100157904,
        "lon": 109.65870134222348,
        "alt_km": 422.6823105448966,
        "timestamp": "2025-12-04T09:47:37.180253+00:00",
        "meta_object_name": "SKYSAT-C11",
        "meta_object_id": "2017-068A",
        "meta_epoch": "2025-12-04T03:24:51.257088",
        "meta_mean_motion": 15.46899554,
        "meta_eccentricity": 9.49e-05,
        "meta_inclination": 97.4138,
        "meta_ra_of_asc_node": 115.4252,
        "meta_arg_of_pericenter": 111.8908,
        "meta_mean_anomaly": 248.2442,
        "meta_ephemeris_type": 0,
        "meta_classification_type": "U",
        "meta_norad_cat_id": 42987,
        "meta_element_set_no": 999,
        "meta_rev_at_epoch": 45298,
        "meta_bstar": 0.00080686,
        "meta_mean_motion_dot": 0.00040655,
        "meta_mean_motion_ddot": 0,
        "tle_line1": "1 42987U 17068A   25338.14225992  .00040655  00000+0  80686-3 0  9997",
        "tle_line2": "2 42987  97.4138 115.4252 0000949 111.8908 248.2442 15.46899554452984"
      },
      "geometry": {
        "type": "Point",
        "coordinates": [
          109.65870134222348,
          38.9341100157904
        ]
      }
    }
  ]
}